HULIANWANG DIGUI-144    
1 67442U 26007H   26036.72282661  .00000001  00000+0  14235-3 0  9997
2 67442  50.0076 202.8925 0000797 317.2030  42.8801 13.77538540  3212
HULIANWANG DIGUI-145    
1 67443U 26007J   26036.86443486  .00000023  00000+0  16495-3 0  9991
2 67443  50.0053 202.3026 0000384 119.6896 240.4035 13.77425655  3230
CZ-8A R/B               
1 67444U 26007K   26036.94725964 -.00000083  00000+0  36590-4 0  9991
2 67444  50.0084 198.0383 0092208 162.9744 197.4292 14.13551492  3293
STARLINK-36542          
1 67445U 26008A   26037.25002315 -.02085013  00000+0 -33672-1 0  9990
2 67445  43.0001  24.7023 0001226 266.6626  30.8909 15.55277181  4745
STARLINK-36539          
1 67446U 26008B   26037.25002315 -.02089675  00000+0 -31417-1 0  9994
2 67446  42.9998  24.6274 0001228 270.4869  57.7371 15.57190966  4748
STARLINK-36440          
1 67447U 26008C   26035.39396356 -.00618888  00000+0 -44540-2 0  9993
2 67447  42.9995  35.5635 0000730 302.0276  58.0522 15.74395349  4450
STARLINK-36423          
1 67448U 26008D   26037.25002315 -.02207513  00000+0 -39518-1 0  9999
2 67448  43.0003  24.8007 0001313 258.7107 359.0920 15.52683827  4740
STARLINK-36519          
1 67449U 26008E   26037.25002315 -.02076697  00000+0 -25605-1 0  9999
2 67449  43.0005  24.4446 0001185 279.0499 122.8116 15.62856071  4740
STARLINK-36525          
1 67450U 26008F   26037.25002315 -.02093410  00000+0 -34081-1 0  9991
2 67450  43.0000  24.6859 0001238 266.1300  37.7059 15.55074027  4749
STARLINK-36511          
1 67451U 26008G   26037.25002315 -.02501501  00000+0 -43823-1 0  9991
2 67451  43.0000  24.7749 0001457 264.3136   3.8802 15.53139791  4747
STARLINK-36524          
1 67452U 26008H   26037.25002315 -.02070561  00000+0 -32680-1 0  9998
2 67452  43.0000  24.6449 0001250 272.8128  47.5309 15.55869375  4747
STARLINK-36518          
1 67453U 26008J   26037.25002315 -.02110513  00000+0 -30072-1 0  9994
2 67453  42.9997  24.1790 0000836 281.7863 222.2855 15.58638475  4767
