CCSDS_OMM_VERS = 2.0
CREATION_DATE  = 
ORIGINATOR     = 

OBJECT_NAME    = HULIANWANG DIGUI-144
OBJECT_ID      = 2026-007H
CENTER_NAME    = EARTH
REF_FRAME      = TEME
TIME_SYSTEM    = UTC
MEAN_ELEMENT_THEORY = SGP/SGP4

EPOCH          = 2026-02-05T17:20:52.219104
MEAN_MOTION    = 13.77538540
ECCENTRICITY   = .00007979
INCLINATION    = 50.0076
RA_OF_ASC_NODE = 202.8925
ARG_OF_PERICENTER = 317.2030
MEAN_ANOMALY   = 42.8801

EPHEMERIS_TYPE = 0
CLASSIFICATION_TYPE = U
NORAD_CAT_ID   = 67442
ELEMENT_SET_NO = 999
REV_AT_EPOCH   = 321
BSTAR          = .14235354E-3
MEAN_MOTION_DOT = .1E-7
MEAN_MOTION_DDOT = 0

CCSDS_OMM_VERS = 2.0
CREATION_DATE  = 
ORIGINATOR     = 

OBJECT_NAME    = HULIANWANG DIGUI-145
OBJECT_ID      = 2026-007J
CENTER_NAME    = EARTH
REF_FRAME      = TEME
TIME_SYSTEM    = UTC
MEAN_ELEMENT_THEORY = SGP/SGP4

EPOCH          = 2026-02-05T20:44:47.171904
MEAN_MOTION    = 13.77425655
ECCENTRICITY   = .0000384
INCLINATION    = 50.0053
RA_OF_ASC_NODE = 202.3026
ARG_OF_PERICENTER = 119.6896
MEAN_ANOMALY   = 240.4035

EPHEMERIS_TYPE = 0
CLASSIFICATION_TYPE = U
NORAD_CAT_ID   = 67443
ELEMENT_SET_NO = 999
REV_AT_EPOCH   = 323
BSTAR          = .16494674E-3
MEAN_MOTION_DOT = .23E-6
MEAN_MOTION_DDOT = 0

CCSDS_OMM_VERS = 2.0
CREATION_DATE  = 
ORIGINATOR     = 

OBJECT_NAME    = CZ-8A R/B
OBJECT_ID      = 2026-007K
CENTER_NAME    = EARTH
REF_FRAME      = TEME
TIME_SYSTEM    = UTC
MEAN_ELEMENT_THEORY = SGP/SGP4

EPOCH          = 2026-02-05T22:44:03.232896
MEAN_MOTION    = 14.13551492
ECCENTRICITY   = .0092208
INCLINATION    = 50.0084
RA_OF_ASC_NODE = 198.0383
ARG_OF_PERICENTER = 162.9744
MEAN_ANOMALY   = 197.4292

EPHEMERIS_TYPE = 0
CLASSIFICATION_TYPE = U
NORAD_CAT_ID   = 67444
ELEMENT_SET_NO = 999
REV_AT_EPOCH   = 329
BSTAR          = .3659E-4
MEAN_MOTION_DOT = -.83E-6
MEAN_MOTION_DDOT = 0

CCSDS_OMM_VERS = 2.0
CREATION_DATE  = 
ORIGINATOR     = 

OBJECT_NAME    = STARLINK-36542
OBJECT_ID      = 2026-008A
CENTER_NAME    = EARTH
REF_FRAME      = TEME
TIME_SYSTEM    = UTC
MEAN_ELEMENT_THEORY = SGP/SGP4

EPOCH          = 2026-02-06T06:00:02.000160
MEAN_MOTION    = 15.55277181
ECCENTRICITY   = .00012266
INCLINATION    = 43.0001
RA_OF_ASC_NODE = 24.7023
ARG_OF_PERICENTER = 266.6626
MEAN_ANOMALY   = 30.8909

EPHEMERIS_TYPE = 0
CLASSIFICATION_TYPE = U
NORAD_CAT_ID   = 67445
ELEMENT_SET_NO = 999
REV_AT_EPOCH   = 474
BSTAR          = -.33672457E-1
MEAN_MOTION_DOT = -.2085013E-1
MEAN_MOTION_DDOT = 0

CCSDS_OMM_VERS = 2.0
CREATION_DATE  = 
ORIGINATOR     = 

OBJECT_NAME    = STARLINK-36539
OBJECT_ID      = 2026-008B
CENTER_NAME    = EARTH
REF_FRAME      = TEME
TIME_SYSTEM    = UTC
MEAN_ELEMENT_THEORY = SGP/SGP4

EPOCH          = 2026-02-06T06:00:02.000160
MEAN_MOTION    = 15.57190966
ECCENTRICITY   = .00012289
INCLINATION    = 42.9998
RA_OF_ASC_NODE = 24.6274
ARG_OF_PERICENTER = 270.4869
MEAN_ANOMALY   = 57.7371

EPHEMERIS_TYPE = 0
CLASSIFICATION_TYPE = U
NORAD_CAT_ID   = 67446
ELEMENT_SET_NO = 999
REV_AT_EPOCH   = 474
BSTAR          = -.31417181E-1
MEAN_MOTION_DOT = -.2089675E-1
MEAN_MOTION_DDOT = 0

CCSDS_OMM_VERS = 2.0
CREATION_DATE  = 
ORIGINATOR     = 

OBJECT_NAME    = STARLINK-36440
OBJECT_ID      = 2026-008C
CENTER_NAME    = EARTH
REF_FRAME      = TEME
TIME_SYSTEM    = UTC
MEAN_ELEMENT_THEORY = SGP/SGP4

EPOCH          = 2026-02-04T09:27:18.451584
MEAN_MOTION    = 15.74395349
ECCENTRICITY   = .00007308
INCLINATION    = 42.9995
RA_OF_ASC_NODE = 35.5635
ARG_OF_PERICENTER = 302.0276
MEAN_ANOMALY   = 58.0522

EPHEMERIS_TYPE = 0
CLASSIFICATION_TYPE = U
NORAD_CAT_ID   = 67447
ELEMENT_SET_NO = 999
REV_AT_EPOCH   = 445
BSTAR          = -.44540379E-2
MEAN_MOTION_DOT = -.618888E-2
MEAN_MOTION_DDOT = 0

CCSDS_OMM_VERS = 2.0
CREATION_DATE  = 
ORIGINATOR     = 

OBJECT_NAME    = STARLINK-36423
OBJECT_ID      = 2026-008D
CENTER_NAME    = EARTH
REF_FRAME      = TEME
TIME_SYSTEM    = UTC
MEAN_ELEMENT_THEORY = SGP/SGP4

EPOCH          = 2026-02-06T06:00:02.000160
MEAN_MOTION    = 15.52683827
ECCENTRICITY   = .00013134
INCLINATION    = 43.0003
RA_OF_ASC_NODE = 24.8007
ARG_OF_PERICENTER = 258.7107
MEAN_ANOMALY   = 359.0920

EPHEMERIS_TYPE = 0
CLASSIFICATION_TYPE = U
NORAD_CAT_ID   = 67448
ELEMENT_SET_NO = 999
REV_AT_EPOCH   = 474
BSTAR          = -.39518395E-1
MEAN_MOTION_DOT = -.2207513E-1
MEAN_MOTION_DDOT = 0

CCSDS_OMM_VERS = 2.0
CREATION_DATE  = 
ORIGINATOR     = 

OBJECT_NAME    = STARLINK-36519
OBJECT_ID      = 2026-008E
CENTER_NAME    = EARTH
REF_FRAME      = TEME
TIME_SYSTEM    = UTC
MEAN_ELEMENT_THEORY = SGP/SGP4

EPOCH          = 2026-02-06T06:00:02.000160
MEAN_MOTION    = 15.62856071
ECCENTRICITY   = .00011852
INCLINATION    = 43.0005
RA_OF_ASC_NODE = 24.4446
ARG_OF_PERICENTER = 279.0499
MEAN_ANOMALY   = 122.8116

EPHEMERIS_TYPE = 0
CLASSIFICATION_TYPE = U
NORAD_CAT_ID   = 67449
ELEMENT_SET_NO = 999
REV_AT_EPOCH   = 474
BSTAR          = -.25605424E-1
MEAN_MOTION_DOT = -.2076697E-1
MEAN_MOTION_DDOT = 0

CCSDS_OMM_VERS = 2.0
CREATION_DATE  = 
ORIGINATOR     = 

OBJECT_NAME    = STARLINK-36525
OBJECT_ID      = 2026-008F
CENTER_NAME    = EARTH
REF_FRAME      = TEME
TIME_SYSTEM    = UTC
MEAN_ELEMENT_THEORY = SGP/SGP4

EPOCH          = 2026-02-06T06:00:02.000160
MEAN_MOTION    = 15.55074027
ECCENTRICITY   = .00012389
INCLINATION    = 43.0000
RA_OF_ASC_NODE = 24.6859
ARG_OF_PERICENTER = 266.1300
MEAN_ANOMALY   = 37.7059

EPHEMERIS_TYPE = 0
CLASSIFICATION_TYPE = U
NORAD_CAT_ID   = 67450
ELEMENT_SET_NO = 999
REV_AT_EPOCH   = 474
BSTAR          = -.34081484E-1
MEAN_MOTION_DOT = -.209341E-1
MEAN_MOTION_DDOT = 0

CCSDS_OMM_VERS = 2.0
CREATION_DATE  = 
ORIGINATOR     = 

OBJECT_NAME    = STARLINK-36511
OBJECT_ID      = 2026-008G
CENTER_NAME    = EARTH
REF_FRAME      = TEME
TIME_SYSTEM    = UTC
MEAN_ELEMENT_THEORY = SGP/SGP4

EPOCH          = 2026-02-06T06:00:02.000160
MEAN_MOTION    = 15.53139791
ECCENTRICITY   = .00014571
INCLINATION    = 43.0000
RA_OF_ASC_NODE = 24.7749
ARG_OF_PERICENTER = 264.3136
MEAN_ANOMALY   = 3.8802

EPHEMERIS_TYPE = 0
CLASSIFICATION_TYPE = U
NORAD_CAT_ID   = 67451
ELEMENT_SET_NO = 999
REV_AT_EPOCH   = 474
BSTAR          = -.43822905E-1
MEAN_MOTION_DOT = -.2501501E-1
MEAN_MOTION_DDOT = 0

CCSDS_OMM_VERS = 2.0
CREATION_DATE  = 
ORIGINATOR     = 

OBJECT_NAME    = STARLINK-36524
OBJECT_ID      = 2026-008H
CENTER_NAME    = EARTH
REF_FRAME      = TEME
TIME_SYSTEM    = UTC
MEAN_ELEMENT_THEORY = SGP/SGP4

EPOCH          = 2026-02-06T06:00:02.000160
MEAN_MOTION    = 15.55869375
ECCENTRICITY   = .00012506
INCLINATION    = 43.0000
RA_OF_ASC_NODE = 24.6449
ARG_OF_PERICENTER = 272.8128
MEAN_ANOMALY   = 47.5309

EPHEMERIS_TYPE = 0
CLASSIFICATION_TYPE = U
NORAD_CAT_ID   = 67452
ELEMENT_SET_NO = 999
REV_AT_EPOCH   = 474
BSTAR          = -.32679664E-1
MEAN_MOTION_DOT = -.2070561E-1
MEAN_MOTION_DDOT = 0

CCSDS_OMM_VERS = 2.0
CREATION_DATE  = 
ORIGINATOR     = 

OBJECT_NAME    = STARLINK-36518
OBJECT_ID      = 2026-008J
CENTER_NAME    = EARTH
REF_FRAME      = TEME
TIME_SYSTEM    = UTC
MEAN_ELEMENT_THEORY = SGP/SGP4

EPOCH          = 2026-02-06T06:00:02.000160
MEAN_MOTION    = 15.58638475
ECCENTRICITY   = .00008366
INCLINATION    = 42.9997
RA_OF_ASC_NODE = 24.1790
ARG_OF_PERICENTER = 281.7863
MEAN_ANOMALY   = 222.2855

EPHEMERIS_TYPE = 0
CLASSIFICATION_TYPE = U
NORAD_CAT_ID   = 67453
ELEMENT_SET_NO = 999
REV_AT_EPOCH   = 476
BSTAR          = -.30071537E-1
MEAN_MOTION_DOT = -.2110513E-1
MEAN_MOTION_DDOT = 0

